OBJECT_NAME,OBJECT_ID,EPOCH,MEAN_MOTION,ECCENTRICITY,INCLINATION,RA_OF_ASC_NODE,ARG_OF_PERICENTER,MEAN_ANOMALY,EPHEMERIS_TYPE,CLASSIFICATION_TYPE,NORAD_CAT_ID,ELEMENT_SET_NO,REV_AT_EPOCH,BSTAR,MEAN_MOTION_DOT,MEAN_MOTION_DDOT
ONEWEB-0365,2021-090N,2026-06-03T11:07:57.617184,13.19727098,.00017191,87.9168,307.7008,94.1665,265.9665,0,U,49291,999,22461,.10922527E-3,.57E-6,0
ONEWEB-0366,2021-090P,2026-06-02T19:42:37.798848,13.14501275,.00019275,87.8947,292.5705,99.6077,260.5271,0,U,49292,999,22567,.27889797E-3,.116E-5,0
ONEWEB-0367,2021-090Q,2026-06-04T17:44:11.985504,13.20777233,.00014148,87.9186,276.9210,82.8159,277.3135,0,U,49293,999,22818,-.68137922E-3,-.264E-5,0
ONEWEB-0368,2021-090R,2026-06-04T17:06:37.786176,13.20783283,.00017098,87.9187,276.9368,81.9483,278.1844,0,U,49294,999,22933,-.6183749E-2,-.2501E-4,0
ONEWEB-0369,2021-090S,2026-06-03T11:01:08.490720,13.19726484,.00017661,87.9157,307.7104,93.1305,267.0030,0,U,49295,999,22460,.66739318E-4,.4E-6,0
ONEWEB-0370,2021-090T,2026-06-03T07:24:50.470272,13.20773853,.00019869,87.9191,277.2059,109.7151,250.4197,0,U,49296,999,22803,.66775208E-4,.4E-6,0
ONEWEB-0371,2021-090U,2026-06-03T11:12:30.070944,13.19727326,.00017495,87.9165,307.7000,98.3258,261.8073,0,U,49297,999,22464,.7227665E-4,.42E-6,0
ONEWEB-0372,2021-090V,2026-06-03T07:10:05.892384,13.20770812,.00018919,87.9205,277.2086,104.2796,255.8548,0,U,49298,999,22800,-.39167821E-4,-.3E-7,0
ONEWEB-0373,2021-090W,2026-06-03T07:46:40.132704,13.20769992,.00020238,87.9181,277.2051,103.8941,256.2417,0,U,49299,999,22919,.27253506E-4,.24E-6,0
ONEWEB-0374,2021-090X,2026-06-03T08:11:37.989024,13.14503472,.00024197,87.8959,292.4572,90.1889,269.9518,0,U,49300,999,22574,-.22224965E-3,-.7E-6,0
ONEWEB-0375,2021-090Y,2026-06-03T07:29:42.770976,13.20771552,.00024177,87.9190,277.1986,93.6208,266.5202,0,U,49301,999,22869,.87129607E-4,.48E-6,0
ONEWEB-0376,2021-090Z,2026-06-03T11:10:13.689408,13.19724178,.00016467,87.9169,307.6998,93.4587,266.6734,0,U,49302,999,22464,.86892232E-4,.48E-6,0
ONEWEB-0377,2021-090AA,2026-06-04T17:43:13.854720,13.20771808,.00021632,87.9187,276.9167,99.8078,260.3300,0,U,49303,999,22887,.12329229E-3,.63E-6,0
ONEWEB-0378,2021-090AB,2026-06-03T07:39:35.482752,13.20767903,.00018567,87.9177,277.2053,108.7633,251.3701,0,U,49304,999,22795,-.15296481E-2,-.609E-5,0
ONEWEB-0379,2021-090AC,2026-06-03T08:04:46.228224,13.14502468,.00019104,87.8955,292.4687,95.6194,264.5154,0,U,49305,999,22574,-.30363332E-3,-.1E-5,0
ONEWEB-0380,2021-090AD,2026-06-03T11:05:41.608896,13.19724989,.00020425,87.9158,307.7068,97.7613,262.3751,0,U,49306,999,22461,.62448542E-4,.38E-6,0
ONEWEB-0381,2021-090AE,2026-06-04T17:38:10.798944,13.20772510,.00020523,87.9205,276.9188,98.3328,261.8038,0,U,49307,999,22818,-.87586992E-4,-.23E-6,0
ONEWEB-0382,2021-090AF,2026-06-04T17:18:44.718624,13.20772582,.00021152,87.9191,276.9188,93.0275,267.1101,0,U,49308,999,22817,.81095341E-4,.46E-6,0
ONEWEB-0383,2021-090AG,2026-06-03T07:55:37.564032,13.14503945,.00016844,87.8966,292.4612,98.8966,261.2354,0,U,49309,999,22577,.20394543E-3,.88E-6,0
ONEWEB-0384,2021-090AH,2026-06-04T22:30:13.821408,13.20800664,.0002364,87.9189,276.9200,93.0314,267.1090,0,U,49310,999,22821,.58079624E-2,.2376E-4,0
ONEWEB-0385,2021-090AJ,2026-06-04T17:09:05.561280,13.20771239,.00021146,87.9184,276.9263,94.9741,265.1634,0,U,49311,999,22815,-.26850953E-3,-.96E-6,0
ONEWEB-0386,2021-090AK,2026-06-04T17:33:19.574784,13.20772712,.00019901,87.9205,276.9106,100.3473,259.7885,0,U,49312,999,22817,-.46630031E-4,-.6E-7,0
ONEWEB-0387,2021-090AL,2026-06-04T17:11:30.716736,13.20773798,.0002434,87.9193,276.9409,109.1208,251.0190,0,U,49313,999,22817,.14379712E-3,.71E-6,0
ONEWEB-0388,2021-090AM,2026-06-03T23:43:06.346560,13.19726303,.00019208,87.9159,307.6003,91.9088,268.2265,0,U,49314,999,22467,.31729761E-4,.26E-6,0
ONEWEB-0389,2021-132A,2026-06-04T03:18:16.198272,13.17647841,.00021903,87.9143,8.4644,86.3960,273.7422,0,U,50469,999,21636,.11790823E-3,.59E-6,0
ONEWEB-0390,2021-132B,2026-06-04T03:20:41.924832,13.17648293,.000181,87.9143,8.4646,94.5252,265.6087,0,U,50470,999,21636,.39447422E-4,.28E-6,0
ONEWEB-0391,2021-132C,2026-06-04T03:23:07.838016,13.17647832,.00026399,87.9144,8.4741,96.9001,263.2431,0,U,50471,999,21636,.2315539E-4,.22E-6,0
ONEWEB-0392,2021-132D,2026-06-04T02:17:32.366400,13.17649973,.000228,87.9149,8.4505,85.7903,274.3489,0,U,50472,999,21639,.95901E-5,.17E-6,0
ONEWEB-0393,2021-132E,2026-06-04T03:31:39.128160,13.17649764,.0002018,87.9142,8.4584,86.6333,273.5029,0,U,50473,999,21639,.18955122E-4,.2E-6,0
ONEWEB-0394,2021-132F,2026-06-04T01:08:09.750048,13.18689064,.00020387,87.9163,338.0563,87.4927,272.6438,0,U,50474,999,21986,.27978948E-3,.123E-5,0
